[{"OBJECT_NAME":"HERMES-5","OBJECT_ID":"2025-052BQ","EPOCH":"2026-03-09T22:33:51.245280","MEAN_MOTION":15.26210393,"ECCENTRICITY":0.0006071,"INCLINATION":97.4082,"RA_OF_ASC_NODE":324.1247,"ARG_OF_PERICENTER":124.4334,"MEAN_ANOMALY":235.7479,"EPHEMERIS_TYPE":0,"CLASSIFICATION_TYPE":"U","NORAD_CAT_ID":63834,"ELEMENT_SET_NO":999,"REV_AT_EPOCH":5480,"BSTAR":0.00068450239,"MEAN_MOTION_DOT":0.00017673,"MEAN_MOTION_DDOT":0},{"OBJECT_NAME":"STARLINK-34002","OBJECT_ID":"2025-093W","EPOCH":"2026-03-09T09:02:34.056384","MEAN_MOTION":15.27581665,"ECCENTRICITY":7.143e-5,"INCLINATION":42.9989,"RA_OF_ASC_NODE":79.7039,"ARG_OF_PERICENTER":287.335,"MEAN_ANOMALY":72.7424,"EPHEMERIS_TYPE":0,"CLASSIFICATION_TYPE":"U","NORAD_CAT_ID":63856,"ELEMENT_SET_NO":999,"REV_AT_EPOCH":4770,"BSTAR":0.0012357867,"MEAN_MOTION_DOT":0.00033902,"MEAN_MOTION_DDOT":0}]
